CAS-2T & KS-1Q          
1 41847U 16066G   21183.71172817  .00000218  00000-0  42799-4 0  9998
2 41847  98.6002 242.9070 0365445 174.6698 185.8551 14.38203594244072
NAYIF-1 (EO-88)         
1 42017U 17008BX  21183.81716202  .00003476  00000-0  12877-3 0  9990
2 42017  97.3149 251.1421 0007408  63.6502 296.5498 15.28282598243604
ZHUHAI-1 02 (CAS-4B)    
1 42759U 17034B   21183.97277176  .00000465  00000-0  41266-4 0  9991
2 42759  43.0177  95.7586 0010009 266.0814 200.1313 15.10246809223494
ZHUHAI-1 01 (CAS-4A)    
1 42761U 17034D   21183.83059831  .00000543  00000-0  45848-4 0  9992
2 42761  43.0177  95.5838 0010363 266.0519 200.2390 15.10334382223478
MAX VALIER SAT          
1 42778U 17036P   21183.93443110  .00001960  00000-0  84386-4 0  9994
2 42778  97.2537 232.0374 0013492 118.1538 242.1064 15.23671429223646
RADFXSAT (FOX-1B)       
1 43017U 17073E   21183.68481111  .00000526  00000-0  46529-4 0  9991
2 43017  97.7058  87.0699 0253380 250.6159 106.7508 14.79587241195371
FOX-1D (AO-92)          
1 43137U 18004AC  21183.88080349  .00002139  00000-0  87704-4 0  9991
2 43137  97.4063 257.7548 0009637 147.9405 212.2421 15.25324619193018
DIWATA-2B               
1 43678U 18084H   21183.81400228 -.00000177  00000-0 -11756-4 0  9990
2 43678  97.9260 309.1720 0010287   8.6443 351.4947 14.91758078145720
ES'HAIL 2               
1 43700U 18090A   21183.90465955  .00000146  00000-0  00000-0 0  9991
2 43700   0.0217  19.4240 0001174 111.5432 141.6616  1.00269177  9520
FOX-1CLIFF (AO-95)      
1 43770U 18099N   21183.77372425  .00000100  00000-0  14233-4 0  9998
2 43770  97.6642 253.6224 0014717  12.5794 347.5791 14.95345567140740
ITASAT 1                
1 43786U 18099AE  21183.75685145  .00000538  00000-0  53496-4 0  9998
2 43786  97.6665 254.2946 0015205   6.1763 353.9642 14.95639101140777
JY1SAT (JO-97)          
1 43803U 18099AX  21183.71816371  .00000348  00000-0  36153-4 0  9991
2 43803  97.6621 254.0069 0015040   5.3415 354.7963 14.95885663140776
UWE-4                   
1 43880U 18111E   21183.69158443  .00001164  00000-0  10631-3 0  9996
2 43880  97.6864  91.1646 0013714  57.7062 302.5486 14.96893049137366
PSAT2 (NO-104)          
1 44354U 19036R   21183.86601805  .00024753  00000-0  32560-3 0  9998
2 44354  28.5283  24.2615 0323832  83.1528 280.5792 15.14037325111319
BRICSAT2 (NO-103)       
1 44355U 19036S   21183.79702506  .00058061 -52473-5  61142-3 0  9995
2 44355  28.5263 337.1340 0258217 159.8779 201.2212 15.31029039111782
JAISAT-1                
1 44419U 19038F   21183.90749833  .00001573  00000-0  90468-4 0  9998
2 44419  97.5890 148.5523 0019287 258.5634 101.3431 15.13818997110131
DUCHIFAT-3              
1 44854U 19089C   21183.90878095  .00000538  00000-0  49351-4 0  9995
2 44854  36.9681   9.2331 0009602 270.3552  89.6091 14.99523077 85428
CAS-6 (TO-108)          
1 44881U 19093C   21183.79936675  .00000106  00000-0  20284-4 0  9991
2 44881  97.9237 262.4604 0013718 240.9962 118.9876 14.81460024 83001
RS-44 & BREEZE-KM R/B   
1 44909U 19096E   21183.87317155  .00000016  00000-0  14339-4 0  9994
2 44909  82.5218 102.5696 0218510  57.1885 305.0054 12.79710630 70790
ORBITAL FACTORY 2 (OF-2)
1 45113U 19071C   21183.76165706  .00003490  00000-0  10913-3 0  9998
2 45113  51.6428 323.2831 0011719 351.4411   8.6370 15.35890655 79526
HUSKYSAT-1 (HO-107)     
1 45119U 19071J   21183.64270704  .00003768  00000-0  11688-3 0  9994
2 45119  51.6424 323.2337 0011106 347.6036  12.4672 15.35909894 79501
BY70-2                  
1 45857U 20042B   21183.75185837  .00001354  00000-0  19884-3 0  9992
2 45857  97.9834 259.3394 0012025 157.0120 203.1628 14.77075889 53806
SALSAT                  
1 46495U 20068K   21183.90168842  .00001295  00000-0  99328-4 0  9999
2 46495  97.6924 121.3038 0017492  23.6975 336.5053 15.03482055 41654
BY70-3                  
1 46839U 20079N   21183.90957896  .00003599  00000-0  11240-3 0  9993
2 46839  97.2389 257.4575 0008220 141.4333 306.1695 15.33795250 36577
RADFXSAT-2 (AO-109)     
1 47311U 21002C   21183.86508037  .00001460  00000-0  74910-4 0  9999
2 47311  60.6859 233.5024 0039109  56.8672 303.6157 15.21710437 25213
UVSQ-SAT                
1 47438U 21006AB  21183.72349497  .00001321  00000-0  77978-4 0  9994
2 47438  97.4863 244.6736 0013934  50.7889 309.4577 15.13179815 24365
DIY-1 (ARDUIQUBE)       
1 47963U 21022AH  21183.69685922  .00002374  00000-0  16083-3 0  9995
2 47963  97.5569  85.7608 0017792 252.3715 107.5570 15.07323968 14191
